ONEWEB-0113             
1 48050U 21025J   24021.25083197 -.00000145  00000+0 -43287-3 0  9999
2 48050  87.9016 134.9630 0001725 111.3417 248.7896 13.13469118138338
ONEWEB-0112             
1 48051U 21025K   24021.31432202  .00000215  00000+0  55254-3 0  9995
2 48051  87.9009 134.9583 0001557 109.5193 250.6105 13.13471731138363
ONEWEB-0156             
1 48052U 21025L   24021.24765858 -.00000045  00000+0 -15765-3 0  9990
2 48052  87.9016 134.9631 0001521 106.8769 253.2527 13.13469074138326
ONEWEB-0161             
1 48053U 21025M   24021.29686504  .00000354  00000+0  93460-3 0  9995
2 48053  87.9016 134.9567 0001527  97.1312 262.9991 13.13471083138265
ONEWEB-0158             
1 48054U 21025N   24021.33492840  .00002057  00000+0  55962-2 0  9995
2 48054  87.9014 134.9438 0001347 104.8976 255.2302 13.13488325138395
ONEWEB-0157             
1 48055U 21025P   24021.35874562  .00000107  00000+0  25912-3 0  9990
2 48055  87.9011 134.9558 0001402 101.2480 258.8806 13.13469401138346
ONEWEB-0162             
1 48056U 21025Q   24021.24606995 -.00000035  00000+0 -13025-3 0  9996
2 48056  87.9010 134.9759 0001544 108.6650 251.4647 13.13468982138295
ONEWEB-0155             
1 48057U 21025R   24021.26669925 -.00000291  00000+0 -83193-3 0  9998
2 48057  87.9013 134.9801 0001623 103.6498 256.4812 13.13469203138432
ONEWEB-0149             
1 48058U 21025S   24021.28733980  .00000232  00000+0  60158-3 0  9993
2 48058  87.9012 134.9731 0001346 109.7610 250.3664 13.13471023138249
ONEWEB-0148             
1 48059U 21025T   24021.25242412 -.00000177  00000+0 -52037-3 0  9993
2 48059  87.9015 134.9844 0000912  97.7449 262.3783 13.13470068138368
ONEWEB-0160             
1 48060U 21025U   24021.26828713 -.00000340  00000+0 -96541-3 0  9990
2 48060  87.9016 134.9772 0002229 129.1307 231.0021 13.13469951138319
ONEWEB-0163             
1 48061U 21025V   24021.25400592 -.00000139  00000+0 -41519-3 0  9992
2 48061  87.9013 134.9765 0001501  94.7151 265.4150 13.13468636138431
ONEWEB-0159             
1 48062U 21025W   24021.31907915  .00000309  00000+0  81147-3 0  9999
2 48062  87.9013 134.9489 0001444 101.1081 259.0210 13.13469642138362
ONEWEB-0164             
1 48063U 21025X   24021.22545710  .00000397  00000+0  10511-2 0  9994
2 48063  87.9013 134.9770 0001750 105.1371 254.9952 13.13470575138333
ONEWEB-0167             
1 48064U 21025Y   24021.25480585 -.00000175  00000+0 -51545-3 0  9995
2 48064  87.9016 134.9809 0001518 101.2720 258.8579 13.13472631138329
ONEWEB-0166             
1 48065U 21025Z   24021.27621910 -.00000306  00000+0 -87278-3 0  9995
2 48065  87.9009 134.9660 0001313 104.0110 256.1166 13.13469986138405
ONEWEB-0151             
1 48066U 21025AA  24021.27781548 -.00000005  00000+0 -47645-4 0  9991
2 48066  87.9010 134.9751 0001875 106.2838 253.8497 13.13472895138340
ONEWEB-0170             
1 48067U 21025AB  24021.36193157  .00000164  00000+0  41380-3 0  9998
2 48067  87.9013 134.9597 0002290 110.8159 249.3216 13.13470939138314
ONEWEB-0168             
1 48068U 21025AC  24021.27145887 -.00000159  00000+0 -47145-3 0  9997
2 48068  87.9015 134.9433 0001520 103.8905 256.2393 13.13469363138314
ONEWEB-0173             
1 48069U 21025AD  24021.33971242 -.00000225  00000+0 -65123-3 0  9997
2 48069  87.9014 134.9400 0001762  89.8316 270.3015 13.13470390138562
ONEWEB-0171             
1 48070U 21025AE  24021.30004409  .00000402  00000+0  10659-2 0  9996
2 48070  87.9018 134.9828 0001712 101.8979 258.2343 13.13471008138372
ONEWEB-0172             
1 48071U 21025AF  24021.35558695 -.00000006  00000+0 -50001-4 0  9992
2 48071  87.9016 134.9386 0001735  99.3914 260.7412 13.13470163139271
ONEWEB-0174             
1 48072U 21025AG  24021.33812083 -.00000247  00000+0 -71055-3 0  9993
2 48072  87.9015 134.9562 0001463 109.3243 250.8045 13.13472291138592
ONEWEB-0175             
1 48073U 21025AH  24021.29051820  .00000299  00000+0  78407-3 0  9996
2 48073  87.9011 134.9632 0002043 104.9630 255.1725 13.13471712138245
ONEWEB-0177             
1 48074U 21025AJ  24021.37938666  .00000333  00000+0  87579-3 0  9997
2 48074  87.9011 134.9509 0001405  89.4031 270.7259 13.13470721138448
ONEWEB-0178             
1 48075U 21025AK  24021.24463488  .00000032  00000+0  54062-4 0  9997
2 48075  87.9020 134.9853 0001513  94.9477 265.1824 13.13469993138474
ONEWEB-0108             
1 48076U 21025AL  24021.28098381  .00000042  00000+0  80834-4 0  9995
2 48076  87.9011 134.9690 0001579 117.2536 242.8754 13.13472638138408
ONEWEB-0169             
1 48077U 21025AM  24021.23657792  .00000280  00000+0  73230-3 0  9993
2 48077  87.9014 134.9840 0001490 117.7539 242.3742 13.13472259137050
ONEWEB-0176             
1 48210U 21031A   24021.31256812  .00000018  00000+0  14968-4 0  9999
2 48210  87.8976 104.4398 0001820 106.2615 253.8715 13.14501899134272
ONEWEB-0184             
1 48211U 21031B   24021.28562035  .00000239  00000+0  61144-3 0  9995
2 48211  87.8971 104.4335 0002811  95.8002 264.3449 13.14501722132952
ONEWEB-0179             
1 48212U 21031C   24021.25547699 -.00000189  00000+0 -54381-3 0  9993
2 48212  87.8974 104.4369 0001654  98.1023 262.0295 13.14501676132992
ONEWEB-0180             
1 48213U 21031D   24021.28877928  .00000221  00000+0  56045-3 0  9992
2 48213  87.8971 104.4325 0001679  96.5387 263.5934 13.14504401132887
ONEWEB-0218             
1 48214U 21031E   24021.23486989  .00000102  00000+0  23988-3 0  9999
2 48214  87.8972 104.4455 0002760  86.8945 273.2501 13.14504429133033
ONEWEB-0209             
1 48215U 21031F   24021.22378449  .00000242  00000+0  61888-3 0  9996
2 48215  87.8967 104.4783 0001589 100.5596 259.5713 13.14495327133034
ONEWEB-0198             
1 48216U 21031G   24021.28402180  .00000166  00000+0  41223-3 0  9999
2 48216  87.8962 104.4722 0001996  89.7458 270.3901 13.14504760133155
ONEWEB-0189             
1 48217U 21031H   24021.22060291  .00000278  00000+0  71435-3 0  9999
2 48217  87.8973 104.4610 0001983  89.1790 270.9567 13.14504708132888
ONEWEB-0196             
1 48218U 21031J   24021.27451715  .00000016  00000+0  84027-5 0  9993
2 48218  87.8973 104.4513 0001915 101.8804 258.2541 13.14504121132895
ONEWEB-0183             
1 48219U 21031K   24021.24913347 -.00000096  00000+0 -29448-3 0  9999
2 48219  87.8963 104.4742 0001675 101.7523 258.3794 13.14502182132985
ONEWEB-0185             
1 48220U 21031L   24021.27530739  .00000038  00000+0  66910-4 0  9994
2 48220  87.8973 104.4422 0001575  97.2201 262.9107 13.14503874132915
ONEWEB-0187             
1 48221U 21031M   24021.24517496 -.00000044  00000+0 -15208-3 0  9999
2 48221  87.8975 104.4788 0001587 100.9821 259.1487 13.14504354132920
ONEWEB-0192             
1 48222U 21031N   24021.30147545  .00000123  00000+0  29606-3 0  9994
2 48222  87.8976 104.4645 0001838  98.9102 261.2236 13.14504109132857
ONEWEB-0219             
1 48223U 21031P   24021.28085310  .00000192  00000+0  48293-3 0  9992
2 48223  87.8973 104.4435 0001620  96.7145 263.4169 13.14502524133044
ONEWEB-0202             
1 48224U 21031Q   24021.26182165 -.00000114  00000+0 -34144-3 0  9993
2 48224  87.8960 104.4683 0002391  83.5772 276.5630 13.14496205133026
ONEWEB-0204             
1 48225U 21031R   24021.29593323  .00000235  00000+0  59916-3 0  9995
2 48225  87.8962 104.4740 0001434 116.6400 243.4877 13.14504050132939
ONEWEB-0205             
1 48226U 21031S   24021.27135150 -.00000013  00000+0 -70309-4 0  9990
2 48226  87.8973 104.4496 0001616  96.4421 263.6892 13.14503417132937
ONEWEB-0206             
1 48227U 21031T   24021.24438137 -.00000059  00000+0 -19394-3 0  9995
2 48227  87.8971 104.4482 0001524  97.4786 262.6517 13.14504520132887
ONEWEB-0182             
1 48228U 21031U   24021.23962266  .00000026  00000+0  34619-4 0  9990
2 48228  87.8969 104.4697 0001598 107.0514 253.0790 13.14501683133099
ONEWEB-0186             
1 48229U 21031V   24021.25072951 -.00000158  00000+0 -45962-3 0  9996
2 48229  87.8973 104.4323 0001833 100.6233 259.5103 13.14502699133042
ONEWEB-0181             
1 48230U 21031W   24021.22852509  .00000209  00000+0  53032-3 0  9992
2 48230  87.8967 104.5057 0001855  98.3505 261.7835 13.14501861132890
ONEWEB-0188             
1 48231U 21031X   24021.26658996 -.00000119  00000+0 -35573-3 0  9993
2 48231  87.8965 104.4960 0001718 103.2325 256.8996 13.14503830132807
ONEWEB-0220             
1 48232U 21031Y   24021.30623587  .00000066  00000+0  14450-3 0  9997
2 48232  87.8969 104.4610 0001501  93.4528 266.6773 13.14502889133074
ONEWEB-0165             
1 48233U 21031Z   24021.25865375 -.00000160  00000+0 -46532-3 0  9998
2 48233  87.8963 104.4772 0001735  98.8160 261.3166 13.14503973133026
ONEWEB-0199             
1 48234U 21031AA  24021.24279205 -.00000058  00000+0 -19049-3 0  9998
2 48234  87.8973 104.4520 0001725 100.9688 259.1635 13.14501652132924
ONEWEB-0203             
1 48235U 21031AB  24021.30940046  .00000101  00000+0  23875-3 0  9993
2 48235  87.8975 104.4399 0002074 108.0327 252.1029 13.14501814132940
ONEWEB-0197             
1 48236U 21031AC  24021.28482329  .00000160  00000+0  39621-3 0  9997
2 48236  87.8973 104.4519 0001429 114.1778 245.9501 13.14504494132856
ONEWEB-0194             
1 48237U 21031AD  24021.26341359 -.00000112  00000+0 -33533-3 0  9998
2 48237  87.8976 104.4481 0002061 109.4480 250.6872 13.14502964133022
ONEWEB-0193             
1 48238U 21031AE  24021.27927750  .00000116  00000+0  27779-3 0  9992
2 48238  87.8975 104.4538 0001865  98.8422 261.2919 13.14503521132976
ONEWEB-0191             
1 48239U 21031AF  24021.29037268  .00000233  00000+0  59495-3 0  9991
2 48239  87.8972 104.4389 0001858 103.7988 256.3348 13.14502037132830
ONEWEB-0195             
1 48240U 21031AG  24021.26737851 -.00000078  00000+0 -24557-3 0  9995
2 48240  87.8970 104.4433 0001891  87.6688 272.4658 13.14503924132811
